{
  "type": "FeatureCollection",
  "features": [
    {
      "type": "Feature",
      "properties": {
        "norad_id": 38709,
        "name": "EXACTVIEW-1 (ADS-1B)",
        "group": "resource",
        "lat": -1.8212324202439525,
        "lon": -90.85326030765025,
        "alt_km": 819.7918284346879,
        "timestamp": "2025-12-07T03:52:32.126900+00:00",
        "meta_object_name": "EXACTVIEW-1 (ADS-1B)",
        "meta_object_id": "2012-039C",
        "meta_epoch": "2025-12-06T06:48:08.630208",
        "meta_mean_motion": 14.24903906,
        "meta_eccentricity": 0.0011011,
        "meta_inclination": 98.9635,
        "meta_ra_of_asc_node": 88.5381,
        "meta_arg_of_pericenter": 12.6195,
        "meta_mean_anomaly": 347.5257,
        "meta_ephemeris_type": 0,
        "meta_classification_type": "U",
        "meta_norad_cat_id": 38709,
        "meta_element_set_no": 999,
        "meta_rev_at_epoch": 69523,
        "meta_bstar": 0.00016500663,
        "meta_mean_motion_dot": 3.39e-06,
        "meta_mean_motion_ddot": 0,
        "tle_line1": "1 38709U 12039C   25340.28343322  .00000339  00000+0  16501-3 0  9993",
        "tle_line2": "2 38709  98.9635  88.5381 0011011  12.6195 347.5257 14.24903906695236"
      },
      "geometry": {
        "type": "Point",
        "coordinates": [
          -90.85326030765025,
          -1.8212324202439525
        ]
      }
    },
    {
      "type": "Feature",
      "properties": {
        "norad_id": 38755,
        "name": "SPOT 6",
        "group": "resource",
        "lat": -72.76193259983746,
        "lon": -161.489164406789,
        "alt_km": 705.6954337514144,
        "timestamp": "2025-12-07T03:52:32.126911+00:00",
        "meta_object_name": "SPOT 6",
        "meta_object_id": "2012-047A",
        "meta_epoch": "2025-12-06T15:11:11.344416",
        "meta_mean_motion": 14.58594718,
        "meta_eccentricity": 0.00010691,
        "meta_inclination": 98.1582,
        "meta_ra_of_asc_node": 45.5295,
        "meta_arg_of_pericenter": 101.5765,
        "meta_mean_anomaly": 258.5555,
        "meta_ephemeris_type": 0,
        "meta_classification_type": "U",
        "meta_norad_cat_id": 38755,
        "meta_element_set_no": 999,
        "meta_rev_at_epoch": 70498,
        "meta_bstar": 0.00019454907,
        "meta_mean_motion_dot": 8.6e-06,
        "meta_mean_motion_ddot": 0,
        "tle_line1": "1 38755U 12047A   25340.63277019  .00000860  00000+0  19455-3 0  9991",
        "tle_line2": "2 38755  98.1582  45.5295 0001069 101.5765 258.5555 14.58594718704989"
      },
      "geometry": {
        "type": "Point",
        "coordinates": [
          -161.489164406789,
          -72.76193259983746
        ]
      }
    },
    {
      "type": "Feature",
      "properties": {
        "norad_id": 39019,
        "name": "PLEIADES 1B",
        "group": "resource",
        "lat": 25.318163275774122,
        "lon": -122.19667870778596,
        "alt_km": 696.7780911640548,
        "timestamp": "2025-12-07T03:52:32.126922+00:00",
        "meta_object_name": "PLEIADES 1B",
        "meta_object_id": "2012-068A",
        "meta_epoch": "2025-12-06T15:38:43.496448",
        "meta_mean_motion": 14.58544105,
        "meta_eccentricity": 0.00012249,
        "meta_inclination": 98.1803,
        "meta_ra_of_asc_node": 53.3997,
        "meta_arg_of_pericenter": 87.1374,
        "meta_mean_anomaly": 272.9965,
        "meta_ephemeris_type": 0,
        "meta_classification_type": "U",
        "meta_norad_cat_id": 39019,
        "meta_element_set_no": 999,
        "meta_rev_at_epoch": 69278,
        "meta_bstar": 0.00019759013,
        "meta_mean_motion_dot": 8.73e-06,
        "meta_mean_motion_ddot": 0,
        "tle_line1": "1 39019U 12068A   25340.65189232  .00000873  00000+0  19759-3 0  9990",
        "tle_line2": "2 39019  98.1803  53.3997 0001224  87.1374 272.9965 14.58544105692787"
      },
      "geometry": {
        "type": "Point",
        "coordinates": [
          -122.19667870778596,
          25.318163275774122
        ]
      }
    },
    {
      "type": "Feature",
      "properties": {
        "norad_id": 39030,
        "name": "GOKTURK 2",
        "group": "resource",
        "lat": 33.78210272711249,
        "lon": 177.90271697805878,
        "alt_km": 641.9054392521957,
        "timestamp": "2025-12-07T03:52:32.126932+00:00",
        "meta_object_name": "GOKTURK 2",
        "meta_object_id": "2012-073A",
        "meta_epoch": "2025-12-06T14:41:56.252832",
        "meta_mean_motion": 14.75278391,
        "meta_eccentricity": 8.595e-05,
        "meta_inclination": 97.6904,
        "meta_ra_of_asc_node": 182.5673,
        "meta_arg_of_pericenter": 101.3827,
        "meta_mean_anomaly": 258.748,
        "meta_ephemeris_type": 0,
        "meta_classification_type": "U",
        "meta_norad_cat_id": 39030,
        "meta_element_set_no": 999,
        "meta_rev_at_epoch": 69611,
        "meta_bstar": 0.00018813882,
        "meta_mean_motion_dot": 1.227e-05,
        "meta_mean_motion_ddot": 0,
        "tle_line1": "1 39030U 12073A   25340.61245663  .00001227  00000+0  18814-3 0  9991",
        "tle_line2": "2 39030  97.6904 182.5673 0000859 101.3827 258.7480 14.75278391696112"
      },
      "geometry": {
        "type": "Point",
        "coordinates": [
          177.90271697805878,
          33.78210272711249
        ]
      }
    },
    {
      "type": "Feature",
      "properties": {
        "norad_id": 39084,
        "name": "LANDSAT 8",
        "group": "resource",
        "lat": -6.90061309325696,
        "lon": 50.31806809226049,
        "alt_km": 706.387665772314,
        "timestamp": "2025-12-07T03:52:32.126942+00:00",
        "meta_object_name": "LANDSAT 8",
        "meta_object_id": "2013-008A",
        "meta_epoch": "2025-12-06T14:43:22.439424",
        "meta_mean_motion": 14.57104999,
        "meta_eccentricity": 0.00011456,
        "meta_inclination": 98.208,
        "meta_ra_of_asc_node": 48.7772,
        "meta_arg_of_pericenter": 86.1685,
        "meta_mean_anomaly": 273.9644,
        "meta_ephemeris_type": 0,
        "meta_classification_type": "U",
        "meta_norad_cat_id": 39084,
        "meta_element_set_no": 999,
        "meta_rev_at_epoch": 66985,
        "meta_bstar": 0.00019637687,
        "meta_mean_motion_dot": 8.39e-06,
        "meta_mean_motion_ddot": 0,
        "tle_line1": "1 39084U 13008A   25340.61345416  .00000839  00000+0  19638-3 0  9999",
        "tle_line2": "2 39084  98.2080  48.7772 0001145  86.1685 273.9644 14.57104999669851"
      },
      "geometry": {
        "type": "Point",
        "coordinates": [
          50.31806809226049,
          -6.90061309325696
        ]
      }
    },
    {
      "type": "Feature",
      "properties": {
        "norad_id": 39086,
        "name": "SARAL",
        "group": "resource",
        "lat": 70.91278599715459,
        "lon": 10.936372561734549,
        "alt_km": 773.7542513549106,
        "timestamp": "2025-12-07T03:52:32.126953+00:00",
        "meta_object_name": "SARAL",
        "meta_object_id": "2013-009A",
        "meta_epoch": "2025-12-06T13:58:09.079392",
        "meta_mean_motion": 14.32753842,
        "meta_eccentricity": 0.00027236,
        "meta_inclination": 98.5506,
        "meta_ra_of_asc_node": 164.5928,
        "meta_arg_of_pericenter": 120.4746,
        "meta_mean_anomaly": 239.6707,
        "meta_ephemeris_type": 0,
        "meta_classification_type": "U",
        "meta_norad_cat_id": 39086,
        "meta_element_set_no": 999,
        "meta_rev_at_epoch": 66802,
        "meta_bstar": 0.00011512136,
        "meta_mean_motion_dot": 2.7e-06,
        "meta_mean_motion_ddot": 0,
        "tle_line1": "1 39086U 13009A   25340.58204953  .00000270  00000+0  11512-3 0  9990",
        "tle_line2": "2 39086  98.5506 164.5928 0002723 120.4746 239.6707 14.32753842668029"
      },
      "geometry": {
        "type": "Point",
        "coordinates": [
          10.936372561734549,
          70.91278599715459
        ]
      }
    },
    {
      "type": "Feature",
      "properties": {
        "norad_id": 39150,
        "name": "GAOFEN-1",
        "group": "resource",
        "lat": 81.53519486582968,
        "lon": -17.63857493353014,
        "alt_km": 629.2687938584222,
        "timestamp": "2025-12-07T03:52:32.126964+00:00",
        "meta_object_name": "GAOFEN-1",
        "meta_object_id": "2013-018A",
        "meta_epoch": "2025-12-06T14:28:14.753856",
        "meta_mean_motion": 14.76517792,
        "meta_eccentricity": 0.0017868,
        "meta_inclination": 97.9335,
        "meta_ra_of_asc_node": 51.3706,
        "meta_arg_of_pericenter": 162.2124,
        "meta_mean_anomaly": 197.9715,
        "meta_ephemeris_type": 0,
        "meta_classification_type": "U",
        "meta_norad_cat_id": 39150,
        "meta_element_set_no": 999,
        "meta_rev_at_epoch": 67982,
        "meta_bstar": 0.00024056446,
        "meta_mean_motion_dot": 1.63e-05,
        "meta_mean_motion_ddot": 0,
        "tle_line1": "1 39150U 13018A   25340.60294854  .00001630  00000+0  24056-3 0  9992",
        "tle_line2": "2 39150  97.9335  51.3706 0017868 162.2124 197.9715 14.76517792679826"
      },
      "geometry": {
        "type": "Point",
        "coordinates": [
          -17.63857493353014,
          81.53519486582968
        ]
      }
    }
  ]
}